{"type": "FeatureCollection", "features": [ {"type": "Feature", "properties": {"norad_id": 35159, "name": "FENGYUN 1C DEB", "group": "fengyun-1c-debris", "lat": -24.376931742849248, "lon": 73.70342369217961, "alt_km": 755.6567263205134, "timestamp": "2025-12-20T03:42:47.680464+00:00", "meta": {"OBJECT_NAME": "FENGYUN 1C DEB", "OBJECT_ID": "1999-025DMP", "EPOCH": "2025-12-18T03:56:12.547968", "MEAN_MOTION": 14.45218567, "ECCENTRICITY": 0.00125233, "INCLINATION": 98.8399, "RA_OF_ASC_NODE": 67.5884, "ARG_OF_PERICENTER": 158.7222, "MEAN_ANOMALY": 265.4799, "EPHEMERIS_TYPE": 0, "CLASSIFICATION_TYPE": "U", "NORAD_CAT_ID": 35159, "ELEMENT_SET_NO": 999, "REV_AT_EPOCH": 61559, "BSTAR": 0.0014431144, "MEAN_MOTION_DOT": 5.018e-05, "MEAN_MOTION_DDOT": 0}, "tle": {"line1": "1 35159U 99025DMP 25352.16403412  .00005018  00000+0  14431-2 0  9994", "line2": "2 35159  98.8399  67.5884 0012523 158.7222 265.4799 14.45218567615590"}}, "geometry": {"type": "Point", "coordinates": [73.70342369217961, -24.376931742849248]}}, {"type": "Feature", "properties": {"norad_id": 35160, "name": "FENGYUN 1C DEB", "group": "fengyun-1c-debris", "lat": 10.789484807243918, "lon": -69.19444718458645, "alt_km": 688.9848582211825, "timestamp": "2025-12-20T03:42:47.680474+00:00", "meta": {"OBJECT_NAME": "FENGYUN 1C DEB", "OBJECT_ID": "1999-025DMQ", "EPOCH": "2025-12-16T13:37:44.190912", "MEAN_MOTION": 14.35976797, "ECCENTRICITY": 0.01760845, "INCLINATION": 99.155, "RA_OF_ASC_NODE": 105.2355, "ARG_OF_PERICENTER": 228.1924, "MEAN_ANOMALY": 130.4106, "EPHEMERIS_TYPE": 0, "CLASSIFICATION_TYPE": "U", "NORAD_CAT_ID": 35160, "ELEMENT_SET_NO": 999, "REV_AT_EPOCH": 64986, "BSTAR": 0.00041002814, "MEAN_MOTION_DOT": 1.364e-05, "MEAN_MOTION_DDOT": 0}, "tle": {"line1": "1 35160U 99025DMQ 25350.56787258  .00001364  00000+0  41003-3 0  9997", "line2": "2 35160  99.1550 105.2355 0176084 228.1924 130.4106 14.35976797649867"}}, "geometry": {"type": "Point", "coordinates": [-69.19444718458645, 10.789484807243918]}}, {"type": "Feature", "properties": {"norad_id": 35165, "name": "FENGYUN 1C DEB", "group": "fengyun-1c-debris", "lat": -63.08178406561007, "lon": -111.69846453371981, "alt_km": 799.3767369335637, "timestamp": "2025-12-20T03:42:47.680484+00:00", "meta": {"OBJECT_NAME": "FENGYUN 1C DEB", "OBJECT_ID": "1999-025DMV", "EPOCH": "2025-12-18T05:21:32.210208", "MEAN_MOTION": 14.33859708, "ECCENTRICITY": 0.00204642, "INCLINATION": 98.8788, "RA_OF_ASC_NODE": 84.2512, "ARG_OF_PERICENTER": 46.5286, "MEAN_ANOMALY": 313.7595, "EPHEMERIS_TYPE": 0, "CLASSIFICATION_TYPE": "U", "NORAD_CAT_ID": 35165, "ELEMENT_SET_NO": 999, "REV_AT_EPOCH": 89799, "BSTAR": 0.0017312247, "MEAN_MOTION_DOT": 4.787e-05, "MEAN_MOTION_DDOT": 0}, "tle": {"line1": "1 35165U 99025DMV 25352.22328947  .00004787  00000+0  17312-2 0  9990", "line2": "2 35165  98.8788  84.2512 0020464  46.5286 313.7595 14.33859708897992"}}, "geometry": {"type": "Point", "coordinates": [-111.69846453371981, -63.08178406561007]}}, {"type": "Feature", "properties": {"norad_id": 35167, "name": "FENGYUN 1C DEB", "group": "fengyun-1c-debris", "lat": -59.63112733291913, "lon": 1.8535864645374633, "alt_km": 867.0253411098338, "timestamp": "2025-12-20T03:42:47.680495+00:00", "meta": {"OBJECT_NAME": "FENGYUN 1C DEB", "OBJECT_ID": "1999-025DMX", "EPOCH": "2025-12-17T22:18:45.149472", "MEAN_MOTION": 14.31170783, "ECCENTRICITY": 0.02295949, "INCLINATION": 98.4497, "RA_OF_ASC_NODE": 344.992, "ARG_OF_PERICENTER": 188.7522, "MEAN_ANOMALY": 170.9628, "EPHEMERIS_TYPE": 0, "CLASSIFICATION_TYPE": "U", "NORAD_CAT_ID": 35167, "ELEMENT_SET_NO": 999, "REV_AT_EPOCH": 70094, "BSTAR": 0.00031462149, "MEAN_MOTION_DOT": 1.059e-05, "MEAN_MOTION_DDOT": 0}, "tle": {"line1": "1 35167U 99025DMX 25351.92968923  .00001059  00000+0  31462-3 0  9994", "line2": "2 35167  98.4497 344.9920 0229594 188.7522 170.9628 14.31170783700948"}}, "geometry": {"type": "Point", "coordinates": [1.8535864645374633, -59.63112733291913]}}, {"type": "Feature", "properties": {"norad_id": 35168, "name": "FENGYUN 1C DEB", "group": "fengyun-1c-debris", "lat": -5.052689806384143, "lon": 64.76833510918763, "alt_km": 825.2646739534503, "timestamp": "2025-12-20T03:42:47.680505+00:00", "meta": {"OBJECT_NAME": "FENGYUN 1C DEB", "OBJECT_ID": "1999-025DMY", "EPOCH": "2025-12-11T11:53:15.848448", "MEAN_MOTION": 14.15522112, "ECCENTRICITY": 0.01260569, "INCLINATION": 98.2752, "RA_OF_ASC_NODE": 237.4634, "ARG_OF_PERICENTER": 131.2558, "MEAN_ANOMALY": 229.9558, "EPHEMERIS_TYPE": 0, "CLASSIFICATION_TYPE": "U", "NORAD_CAT_ID": 35168, "ELEMENT_SET_NO": 999, "REV_AT_EPOCH": 57906, "BSTAR": 0.00034767464, "MEAN_MOTION_DOT": 6.96e-06, "MEAN_MOTION_DDOT": 0}, "tle": {"line1": "1 35168U 99025DMY 25345.49532232  .00000696  00000+0  34767-3 0  9997", "line2": "2 35168  98.2752 237.4634 0126056 131.2558 229.9558 14.15522112579063"}}, "geometry": {"type": "Point", "coordinates": [64.76833510918763, -5.052689806384143]}}, {"type": "Feature", "properties": {"norad_id": 35169, "name": "FENGYUN 1C DEB", "group": "fengyun-1c-debris", "lat": -2.09049001297695, "lon": -121.21164290862569, "alt_km": 693.8039697296363, "timestamp": "2025-12-20T03:42:47.680515+00:00", "meta": {"OBJECT_NAME": "FENGYUN 1C DEB", "OBJECT_ID": "1999-025DMZ", "EPOCH": "2025-12-13T21:54:45.837792", "MEAN_MOTION": 14.5866776, "ECCENTRICITY": 0.01527117, "INCLINATION": 99.1288, "RA_OF_ASC_NODE": 231.5975, "ARG_OF_PERICENTER": 104.1831, "MEAN_ANOMALY": 257.6385, "EPHEMERIS_TYPE": 0, "CLASSIFICATION_TYPE": "U", "NORAD_CAT_ID": 35169, "ELEMENT_SET_NO": 999, "REV_AT_EPOCH": 65797, "BSTAR": 0.00059843273, "MEAN_MOTION_DOT": 3.218e-05, "MEAN_MOTION_DDOT": 0}, "tle": {"line1": "1 35169U 99025DMZ 25347.91303053  .00003218  00000+0  59843-3 0  9999", "line2": "2 35169  99.1288 231.5975 0152711 104.1831 257.6385 14.58667760657970"}}, "geometry": {"type": "Point", "coordinates": [-121.21164290862569, -2.09049001297695]}}, {"type": "Feature", "properties": {"norad_id": 35171, "name": "FENGYUN 1C DEB", "group": "fengyun-1c-debris", "lat": 14.731474670198809, "lon": -32.26184491113617, "alt_km": 980.3110795463763, "timestamp": "2025-12-20T03:42:47.680526+00:00", "meta": {"OBJECT_NAME": "FENGYUN 1C DEB", "OBJECT_ID": "1999-025DNB", "EPOCH": "2025-12-17T21:33:01.857888", "MEAN_MOTION": 13.94988633, "ECCENTRICITY": 0.01381219, "INCLINATION": 99.0078, "RA_OF_ASC_NODE": 143.144, "ARG_OF_PERICENTER": 304.4943, "MEAN_ANOMALY": 54.3238, "EPHEMERIS_TYPE": 0, "CLASSIFICATION_TYPE": "U", "NORAD_CAT_ID": 35171, "ELEMENT_SET_NO": 999, "REV_AT_EPOCH": 88630, "BSTAR": 0.0013902005, "MEAN_MOTION_DOT": 1.981e-05, "MEAN_MOTION_DDOT": 0}, "tle": {"line1": "1 35171U 99025DNB 25351.89793817  .00001981  00000+0  13902-2 0  9995", "line2": "2 35171  99.0078 143.1440 0138121 304.4943  54.3238 13.94988633886306"}}, "geometry": {"type": "Point", "coordinates": [-32.26184491113617, 14.731474670198809]}}, {"type": "Feature", "properties": {"norad_id": 35173, "name": "FENGYUN 1C DEB", "group": "fengyun-1c-debris", "lat": 28.10053973969382, "lon": 60.1540199535657, "alt_km": 1474.8508209125357, "timestamp": "2025-12-20T03:42:47.680536+00:00", "meta": {"OBJECT_NAME": "FENGYUN 1C DEB", "OBJECT_ID": "1999-025DND", "EPOCH": "2025-12-16T00:47:59.591040", "MEAN_MOTION": 13.3734937, "ECCENTRICITY": 0.04902254, "INCLINATION": 99.7848, "RA_OF_ASC_NODE": 61.4638, "ARG_OF_PERICENTER": 205.6396, "MEAN_ANOMALY": 151.9668, "EPHEMERIS_TYPE": 0, "CLASSIFICATION_TYPE": "U", "NORAD_CAT_ID": 35173, "ELEMENT_SET_NO": 999, "REV_AT_EPOCH": 65873, "BSTAR": 0.0018387485, "MEAN_MOTION_DOT": 1.881e-05, "MEAN_MOTION_DDOT": 0}, "tle": {"line1": "1 35173U 99025DND 25350.03332860  .00001881  00000+0  18387-2 0  9990", "line2": "2 35173  99.7848  61.4638 0490225 205.6396 151.9668 13.37349370658732"}}, "geometry": {"type": "Point", "coordinates": [60.1540199535657, 28.10053973969382]}}, {"type": "Feature", "properties": {"norad_id": 35174, "name": "FENGYUN 1C DEB", "group": "fengyun-1c-debris", "lat": -44.37607754251678, "lon": 140.68165362851474, "alt_km": 531.0858041471429, "timestamp": "2025-12-20T03:42:47.680547+00:00", "meta": {"OBJECT_NAME": "FENGYUN 1C DEB", "OBJECT_ID": "1999-025DNE", "EPOCH": "2025-12-13T04:07:25.072608", "MEAN_MOTION": 14.98877767, "ECCENTRICITY": 0.01541479, "INCLINATION": 98.9697, "RA_OF_ASC_NODE": 321.54, "ARG_OF_PERICENTER": 181.4297, "MEAN_ANOMALY": 178.6503, "EPHEMERIS_TYPE": 0, "CLASSIFICATION_TYPE": "U", "NORAD_CAT_ID": 35174, "ELEMENT_SET_NO": 999, "REV_AT_EPOCH": 90172, "BSTAR": 0.0023807921, "MEAN_MOTION_DOT": 0.0003695, "MEAN_MOTION_DDOT": 0}, "tle": {"line1": "1 35174U 99025DNE 25347.17181797  .00036950  00000+0  23808-2 0  9992", "line2": "2 35174  98.9697 321.5400 0154147 181.4297 178.6503 14.98877767901722"}}, "geometry": {"type": "Point", "coordinates": [140.68165362851474, -44.37607754251678]}}, {"type": "Feature", "properties": {"norad_id": 35175, "name": "FENGYUN 1C DEB", "group": "fengyun-1c-debris", "lat": 66.69930929592488, "lon": -157.20757710474174, "alt_km": 848.8650460310428, "timestamp": "2025-12-20T03:42:47.680557+00:00", "meta": {"OBJECT_NAME": "FENGYUN 1C DEB", "OBJECT_ID": "1999-025DNF", "EPOCH": "2025-12-07T17:49:32.813760", "MEAN_MOTION": 14.2129013, "ECCENTRICITY": 0.00571803, "INCLINATION": 98.5747, "RA_OF_ASC_NODE": 350.2325, "ARG_OF_PERICENTER": 294.8485, "MEAN_ANOMALY": 64.6753, "EPHEMERIS_TYPE": 0, "CLASSIFICATION_TYPE": "U", "NORAD_CAT_ID": 35175, "ELEMENT_SET_NO": 999, "REV_AT_EPOCH": 61164, "BSTAR": 0.00067844318, "MEAN_MOTION_DOT": 1.46e-05, "MEAN_MOTION_DDOT": 0}, "tle": {"line1": "1 35175U 99025DNF 25341.74274090  .00001460  00000+0  67844-3 0  9996", "line2": "2 35175  98.5747 350.2325 0057180 294.8485  64.6753 14.21290130611646"}}, "geometry": {"type": "Point", "coordinates": [-157.20757710474174, 66.69930929592488]}}]}